[{"CCSDS_OMM_VERS":"2.0","COMMENT":"GENERATED VIA SPACE-TRACK.ORG API","CREATION_DATE":"2020-12-01T22:36:10","ORIGINATOR":"18 SPCS","OBJECT_NAME":"STARLINK-1572","OBJECT_ID":"2020-055AK","CENTER_NAME":"EARTH","REF_FRAME":"TEME","TIME_SYSTEM":"UTC","MEAN_ELEMENT_THEORY":"SGP4","EPOCH":"2020-12-01T15:48:08.606880","MEAN_MOTION":"15.06448132","ECCENTRICITY":"0.00022340","INCLINATION":"53.0210","RA_OF_ASC_NODE":"113.9074","ARG_OF_PERICENTER":"114.2184","MEAN_ANOMALY":"245.9038","EPHEMERIS_TYPE":"0","CLASSIFICATION_TYPE":"U","NORAD_CAT_ID":"46060","ELEMENT_SET_NO":"999","REV_AT_EPOCH":"1849","BSTAR":"0.00101950000000","MEAN_MOTION_DOT":"0.00014956","MEAN_MOTION_DDOT":"0.0000000000000","SEMIMAJOR_AXIS":"6925.201","PERIOD":"95.589","APOAPSIS":"548.613","PERIAPSIS":"545.518","OBJECT_TYPE":"PAYLOAD","RCS_SIZE":"LARGE","COUNTRY_CODE":"US","LAUNCH_DATE":"2020-08-07","SITE":"AFETR","DECAY_DATE":null,"FILE":"2895746","GP_ID":"166708622","TLE_LINE0":"0 STARLINK-1572","TLE_LINE1":"1 46060U 20055AK  20336.65843295  .00014956  00000-0  10195-2 0  9997","TLE_LINE2":"2 46060  53.0210 113.9074 0002234 114.2184 245.9038 15.06448132 18493"},{"CCSDS_OMM_VERS":"2.0","COMMENT":"GENERATED VIA SPACE-TRACK.ORG API","CREATION_DATE":"2020-12-01T22:36:10","ORIGINATOR":"18 SPCS","OBJECT_NAME":"STARLINK-1570","OBJECT_ID":"2020-055AJ","CENTER_NAME":"EARTH","REF_FRAME":"TEME","TIME_SYSTEM":"UTC","MEAN_ELEMENT_THEORY":"SGP4","EPOCH":"2020-12-01T15:53:31.509600","MEAN_MOTION":"15.06277675","ECCENTRICITY":"0.00011810","INCLINATION":"53.0082","RA_OF_ASC_NODE":"113.8951","ARG_OF_PERICENTER":"112.4983","MEAN_ANOMALY":"247.6130","EPHEMERIS_TYPE":"0","CLASSIFICATION_TYPE":"U","NORAD_CAT_ID":"46059","ELEMENT_SET_NO":"999","REV_AT_EPOCH":"1850","BSTAR":"0.00229210000000","MEAN_MOTION_DOT":"0.00033912","MEAN_MOTION_DDOT":"0.0000000000000","SEMIMAJOR_AXIS":"6925.723","PERIOD":"95.599","APOAPSIS":"548.406","PERIAPSIS":"546.770","OBJECT_TYPE":"PAYLOAD","RCS_SIZE":"LARGE","COUNTRY_CODE":"US","LAUNCH_DATE":"2020-08-07","SITE":"AFETR","DECAY_DATE":null,"FILE":"2895746","GP_ID":"166708623","TLE_LINE0":"0 STARLINK-1570","TLE_LINE1":"1 46059U 20055AJ  20336.66217025  .00033912  00000-0  22921-2 0  9995","TLE_LINE2":"2 46059  53.0082 113.8951 0001181 112.4983 247.6130 15.06277675 18504"},{"CCSDS_OMM_VERS":"2.0","COMMENT":"GENERATED VIA SPACE-TRACK.ORG API","CREATION_DATE":"2020-12-02T04:55:40","ORIGINATOR":"18 SPCS","OBJECT_NAME":"STARLINK-1570","OBJECT_ID":"2020-055AJ","CENTER_NAME":"EARTH","REF_FRAME":"TEME","TIME_SYSTEM":"UTC","MEAN_ELEMENT_THEORY":"SGP4","EPOCH":"2020-12-01T15:53:31.509600","MEAN_MOTION":"15.06277675","ECCENTRICITY":"0.00011810","INCLINATION":"53.0082","RA_OF_ASC_NODE":"113.8951","ARG_OF_PERICENTER":"112.4983","MEAN_ANOMALY":"247.6130","EPHEMERIS_TYPE":"0","CLASSIFICATION_TYPE":"U","NORAD_CAT_ID":"46059","ELEMENT_SET_NO":"999","REV_AT_EPOCH":"1899","BSTAR":"0.00229210000000","MEAN_MOTION_DOT":"0.00033912","MEAN_MOTION_DDOT":"0.0000000000000","SEMIMAJOR_AXIS":"6925.723","PERIOD":"95.599","APOAPSIS":"548.406","PERIAPSIS":"546.770","OBJECT_TYPE":"PAYLOAD","RCS_SIZE":"LARGE","COUNTRY_CODE":"US","LAUNCH_DATE":"2020-08-07","SITE":"AFETR","DECAY_DATE":null,"FILE":"2895815","GP_ID":"166730720","TLE_LINE0":"0 STARLINK-1570","TLE_LINE1":"1 46059U 20055AJ  20336.66217025  .00033912  00000-0  22921-2 0  9995","TLE_LINE2":"2 46059  53.0082 113.8951 0001181 112.4983 247.6130 15.06277675 18997"},{"CCSDS_OMM_VERS":"2.0","COMMENT":"GENERATED VIA SPACE-TRACK.ORG API","CREATION_DATE":"2020-12-01T22:36:10","ORIGINATOR":"18 SPCS","OBJECT_NAME":"FALCON 9 DEB","OBJECT_ID":"2020-055BR","CENTER_NAME":"EARTH","REF_FRAME":"TEME","TIME_SYSTEM":"UTC","MEAN_ELEMENT_THEORY":"SGP4","EPOCH":"2020-12-01T16:01:07.887360","MEAN_MOTION":"15.60028647","ECCENTRICITY":"0.00121980","INCLINATION":"53.0060","RA_OF_ASC_NODE":"84.7534","ARG_OF_PERICENTER":"315.0401","MEAN_ANOMALY":"44.9622","EPHEMERIS_TYPE":"0","CLASSIFICATION_TYPE":"U","NORAD_CAT_ID":"46090","ELEMENT_SET_NO":"999","REV_AT_EPOCH":"2275","BSTAR":"0.00028117000000","MEAN_MOTION_DOT":"0.00022791","MEAN_MOTION_DDOT":"0.0000000000000","SEMIMAJOR_AXIS":"6765.711","PERIOD":"92.305","APOAPSIS":"395.829","PERIAPSIS":"379.323","OBJECT_TYPE":"DEBRIS","RCS_SIZE":"MEDIUM","COUNTRY_CODE":"US","LAUNCH_DATE":"2020-08-07","SITE":"AFETR","DECAY_DATE":null,"FILE":"2895749","GP_ID":"166709062","TLE_LINE0":"0 FALCON 9 DEB","TLE_LINE1":"1 46090U 20055BR  20336.66745240  .00022791  00000-0  28117-3 0  9992","TLE_LINE2":"2 46090  53.0060  84.7534 0012198 315.0401  44.9622 15.60028647 22753"},{"CCSDS_OMM_VERS":"2.0","COMMENT":"GENERATED VIA SPACE-TRACK.ORG API","CREATION_DATE":"2020-12-02T04:55:40","ORIGINATOR":"18 SPCS","OBJECT_NAME":"FALCON 9 DEB","OBJECT_ID":"2020-055BR","CENTER_NAME":"EARTH","REF_FRAME":"TEME","TIME_SYSTEM":"UTC","MEAN_ELEMENT_THEORY":"SGP4","EPOCH":"2020-12-01T16:01:07.887360","MEAN_MOTION":"15.60028647","ECCENTRICITY":"0.00121980","INCLINATION":"53.0060","RA_OF_ASC_NODE":"84.7534","ARG_OF_PERICENTER":"315.0401","MEAN_ANOMALY":"44.9622","EPHEMERIS_TYPE":"0","CLASSIFICATION_TYPE":"U","NORAD_CAT_ID":"46090","ELEMENT_SET_NO":"999","REV_AT_EPOCH":"2275","BSTAR":"0.00028117000000","MEAN_MOTION_DOT":"0.00022791","MEAN_MOTION_DDOT":"0.0000000000000","SEMIMAJOR_AXIS":"6765.711","PERIOD":"92.305","APOAPSIS":"395.829","PERIAPSIS":"379.323","OBJECT_TYPE":"DEBRIS","RCS_SIZE":"MEDIUM","COUNTRY_CODE":"US","LAUNCH_DATE":"2020-08-07","SITE":"AFETR","DECAY_DATE":null,"FILE":"2895815","GP_ID":"166730478","TLE_LINE0":"0 FALCON 9 DEB","TLE_LINE1":"1 46090U 20055BR  20336.66745240  .00022791  00000-0  28117-3 0  9992","TLE_LINE2":"2 46090  53.0060  84.7534 0012198 315.0401  44.9622 15.60028647 22753"},{"CCSDS_OMM_VERS":"2.0","COMMENT":"GENERATED VIA SPACE-TRACK.ORG API","CREATION_DATE":"2020-12-02T04:55:40","ORIGINATOR":"18 SPCS","OBJECT_NAME":"STARLINK-1557","OBJECT_ID":"2020-055H","CENTER_NAME":"EARTH","REF_FRAME":"TEME","TIME_SYSTEM":"UTC","MEAN_ELEMENT_THEORY":"SGP4","EPOCH":"2020-12-01T16:12:19.168704","MEAN_MOTION":"15.05581104","ECCENTRICITY":"0.00019240","INCLINATION":"53.0019","RA_OF_ASC_NODE":"123.8525","ARG_OF_PERICENTER":"99.2934","MEAN_ANOMALY":"260.8271","EPHEMERIS_TYPE":"0","CLASSIFICATION_TYPE":"U","NORAD_CAT_ID":"46034","ELEMENT_SET_NO":"999","REV_AT_EPOCH":"1887","BSTAR":"-0.00003590500000","MEAN_MOTION_DOT":"-0.00000803","MEAN_MOTION_DDOT":"0.0000000000000","SEMIMAJOR_AXIS":"6927.859","PERIOD":"95.644","APOAPSIS":"551.057","PERIAPSIS":"548.391","OBJECT_TYPE":"PAYLOAD","RCS_SIZE":"LARGE","COUNTRY_CODE":"US","LAUNCH_DATE":"2020-08-07","SITE":"AFETR","DECAY_DATE":null,"FILE":"2895815","GP_ID":"166730471","TLE_LINE0":"0 STARLINK-1557","TLE_LINE1":"1 46034U 20055H   20336.67522186 -.00000803  00000-0 -35905-4 0  9999","TLE_LINE2":"2 46034  53.0019 123.8525 0001924  99.2934 260.8271 15.05581104 18875"},{"CCSDS_OMM_VERS":"2.0","COMMENT":"GENERATED VIA SPACE-TRACK.ORG API","CREATION_DATE":"2020-12-02T04:55:40","ORIGINATOR":"18 SPCS","OBJECT_NAME":"STARLINK-1567","OBJECT_ID":"2020-055M","CENTER_NAME":"EARTH","REF_FRAME":"TEME","TIME_SYSTEM":"UTC","MEAN_ELEMENT_THEORY":"SGP4","EPOCH":"2020-12-01T16:17:05.917344","MEAN_MOTION":"15.05580796","ECCENTRICITY":"0.00020810","INCLINATION":"53.0019","RA_OF_ASC_NODE":"123.8378","ARG_OF_PERICENTER":"100.4182","MEAN_ANOMALY":"259.7040","EPHEMERIS_TYPE":"0","CLASSIFICATION_TYPE":"U","NORAD_CAT_ID":"46038","ELEMENT_SET_NO":"999","REV_AT_EPOCH":"1889","BSTAR":"-0.00004935600000","MEAN_MOTION_DOT":"-0.00000999","MEAN_MOTION_DDOT":"0.0000000000000","SEMIMAJOR_AXIS":"6927.860","PERIOD":"95.644","APOAPSIS":"551.167","PERIAPSIS":"548.283","OBJECT_TYPE":"PAYLOAD","RCS_SIZE":"LARGE","COUNTRY_CODE":"US","LAUNCH_DATE":"2020-08-07","SITE":"AFETR","DECAY_DATE":null,"FILE":"2895815","GP_ID":"166729971","TLE_LINE0":"0 STARLINK-1567","TLE_LINE1":"1 46038U 20055M   20336.67854071 -.00000999  00000-0 -49356-4 0  9995","TLE_LINE2":"2 46038  53.0019 123.8378 0002081 100.4182 259.7040 15.05580796 18899"},{"CCSDS_OMM_VERS":"2.0","COMMENT":"GENERATED VIA SPACE-TRACK.ORG API","CREATION_DATE":"2020-12-01T22:36:10","ORIGINATOR":"18 SPCS","OBJECT_NAME":"STARLINK-1577","OBJECT_ID":"2020-055AN","CENTER_NAME":"EARTH","REF_FRAME":"TEME","TIME_SYSTEM":"UTC","MEAN_ELEMENT_THEORY":"SGP4","EPOCH":"2020-12-01T16:20:00.632832","MEAN_MOTION":"15.06392714","ECCENTRICITY":"0.00014440","INCLINATION":"53.0233","RA_OF_ASC_NODE":"113.8052","ARG_OF_PERICENTER":"128.6231","MEAN_ANOMALY":"231.4887","EPHEMERIS_TYPE":"0","CLASSIFICATION_TYPE":"U","NORAD_CAT_ID":"46063","ELEMENT_SET_NO":"999","REV_AT_EPOCH":"1849","BSTAR":"0.00079485000000","MEAN_MOTION_DOT":"0.00011575","MEAN_MOTION_DDOT":"0.0000000000000","SEMIMAJOR_AXIS":"6925.370","PERIOD":"95.592","APOAPSIS":"548.235","PERIAPSIS":"546.235","OBJECT_TYPE":"PAYLOAD","RCS_SIZE":"LARGE","COUNTRY_CODE":"US","LAUNCH_DATE":"2020-08-07","SITE":"AFETR","DECAY_DATE":null,"FILE":"2895747","GP_ID":"166709046","TLE_LINE0":"0 STARLINK-1577","TLE_LINE1":"1 46063U 20055AN  20336.68056288  .00011575  00000-0  79485-3 0  9993","TLE_LINE2":"2 46063  53.0233 113.8052 0001444 128.6231 231.4887 15.06392714 18496"}]